{
    "links": {
        "self": "http://www.neowsapp.com/rest/v1/neo/3293924?api_key=iIulBulltgU6a56xZRHN4H3l9WmuAYTsLGpBGhQ2"
    },
    "id": "3293924",
    "neo_reference_id": "3293924",
    "name": "(2005 TK50)",
    "designation": "2005 TK50",
    "nasa_jpl_url": "http://ssd.jpl.nasa.gov/sbdb.cgi?sstr=3293924",
    "absolute_magnitude_h": 29.1,
    "estimated_diameter": {
        "kilometers": {
            "estimated_diameter_min": 0.0040230458,
            "estimated_diameter_max": 0.0089958039
        },
        "meters": {
            "estimated_diameter_min": 4.0230457983,
            "estimated_diameter_max": 8.9958038817
        },
        "miles": {
            "estimated_diameter_min": 0.002499804,
            "estimated_diameter_max": 0.0055897317
        },
        "feet": {
            "estimated_diameter_min": 13.198969577,
            "estimated_diameter_max": 29.5137932072
        }
    },
    "is_potentially_hazardous_asteroid": false,
    "close_approach_data": [
        {
            "close_approach_date": "2005-10-10",
            "close_approach_date_full": "2005-Oct-10 03:58",
            "epoch_date_close_approach": 1128916680000,
            "relative_velocity": {
                "kilometers_per_second": "19.0606823155",
                "kilometers_per_hour": "68618.4563358097",
                "miles_per_hour": "42636.840271548"
            },
            "miss_distance": {
                "astronomical": "0.002316241",
                "lunar": "0.901017749",
                "kilometers": "346504.72000667",
                "miles": "215308.049045246"
            },
            "orbiting_body": "Moon"
        },
        {
            "close_approach_date": "2005-10-10",
            "close_approach_date_full": "2005-Oct-10 04:03",
            "epoch_date_close_approach": 1128916980000,
            "relative_velocity": {
                "kilometers_per_second": "18.0297524682",
                "kilometers_per_hour": "64907.1088855524",
                "miles_per_hour": "40330.7532961367"
            },
            "miss_distance": {
                "astronomical": "0.0008941115",
                "lunar": "0.3478093735",
                "kilometers": "133757.175942505",
                "miles": "83112.855136369"
            },
            "orbiting_body": "Earth"
        }
    ],
    "orbital_data": {
        "orbit_id": "7",
        "orbit_determination_date": "2013-08-27 11:30:34",
        "first_observation_date": "2005-10-09",
        "last_observation_date": "2005-10-09",
        "data_arc_in_days": null,
        "observations_used": 6,
        "orbit_uncertainty": "9",
        "minimum_orbit_intersection": ".000788756",
        "jupiter_tisserand_invariant": "3.309",
        "epoch_osculation": "2453652.5",
        "eccentricity": ".6800191683728209",
        "semi_major_axis": "2.204605739877642",
        "inclination": "6.072668113825099",
        "ascending_node_longitude": "16.43345380576894",
        "orbital_period": "1195.624560068392",
        "perihelion_distance": ".7054315780561001",
        "perihelion_argument": "74.48681560565097",
        "aphelion_distance": "3.703779901699183",
        "perihelion_time": "2453697.841300256035",
        "mean_anomaly": "346.3478313867701",
        "mean_motion": ".3010978630109498",
        "equinox": "J2000",
        "orbit_class": {
            "orbit_class_type": "APO",
            "orbit_class_description": "Near-Earth asteroid orbits which cross the Earth’s orbit similar to that of 1862 Apollo",
            "orbit_class_range": "a (semi-major axis) > 1.0 AU; q (perihelion) < 1.017 AU"
        }
    },
    "is_sentry_object": false
}